NORAD_CAT_ID,OBJECT_NAME,OBJECT_TYPE,EPOCH,MEAN_MOTION,ECCENTRICITY,INCLINATION,RA_OF_ASC_NODE,ARG_OF_PERICENTER,MEAN_ANOMALY,BSTAR,MEAN_MOTION_DOT,MEAN_MOTION_DDOT,TLE_LINE0,TLE_LINE1,TLE_LINE2,SEMIMAJOR_AXIS,PERIOD,APOGEE,PERIGEE,DECAYED
53265.0,STARLINK-4097,PAYLOAD,2024-01-16 13:37:53,15.08839834,0.0001263,53.2147,109.6899,90.0513,270.0624,0.00018472,2.653e-05,0.0,0 STARLINK-4097,1 53265U 22086Z   24016.56797998  .00002653  00000-0  18472-3 0  9993,2 53265  53.2147 109.6899 0001263  90.0513 270.0624 15.08839834 82849,6917.881,95.438,540.62,538.872,0.0
53265.0,STARLINK-4097,PAYLOAD,2024-01-16 15:13:16,15.0884468,0.0001303,53.2147,109.392,101.1678,258.9461,0.00029281,4.376e-05,0.0,0 STARLINK-4097,1 53265U 22086Z   24016.63421818  .00004376  00000-0  29281-3 0  9990,2 53265  53.2147 109.3920 0001303 101.1678 258.9461 15.08844680 82852,6917.866,95.437,540.632,538.83,0.0
53265.0,STARLINK-4097,PAYLOAD,2024-01-17 11:53:17,15.08834765,0.0001809,53.2155,105.5245,99.3619,260.7577,0.00017031,2.423e-05,0.0,0 STARLINK-4097,1 53265U 22086Z   24017.49534710  .00002423  00000-0  17031-3 0  9992,2 53265  53.2155 105.5245 0001809  99.3619 260.7577 15.08834765 82800,6917.896,95.438,541.013,538.51,0.0
53265.0,STARLINK-4097,PAYLOAD,2024-01-17 13:28:41,15.08838064,0.0001896,53.2157,105.2273,68.4465,291.6729,0.00032717,4.922e-05,0.0,0 STARLINK-4097,1 53265U 22086Z   24017.56158924  .00004922  00000-0  32717-3 0  9993,2 53265  53.2157 105.2273 0001896  68.4465 291.6729 15.08838064 82990,6917.886,95.438,541.063,538.44,0.0
53265.0,STARLINK-4097,PAYLOAD,2024-01-18 10:08:39,15.08838862,0.0001588,53.2152,101.3621,77.408,282.7089,-0.00061002,-9.983e-05,0.0,0 STARLINK-4097,1 53265U 22086Z   24018.42268066 -.00009983  00000-0 -61002-3 0  9991,2 53265  53.2152 101.3621 0001588  77.4080 282.7089 15.08838862 82941,6917.884,95.438,540.847,538.65,0.0
53265.0,STARLINK-4097,PAYLOAD,2024-01-19 11:34:51,15.08825935,0.000176,53.216,96.6034,71.975,288.1434,0.00026587,3.944e-05,0.0,0 STARLINK-4097,1 53265U 22086Z   24019.48253594  .00003944  00000-0  26587-3 0  9996,2 53265  53.2160  96.6034 0001760  71.9750 288.1434 15.08825935 83109,6917.923,95.438,541.006,538.571,0.0
53265.0,STARLINK-4097,PAYLOAD,2024-01-20 14:36:25,15.08837603,0.0001484,53.216,91.5465,84.0577,276.0585,0.00045522,6.964e-05,0.0,0 STARLINK-4097,1 53265U 22086Z   24020.60862413  .00006964  00000-0  45522-3 0  9993,2 53265  53.2160  91.5465 0001484  84.0577 276.0585 15.08837603 83452,6917.888,95.438,540.779,538.726,0.0
53265.0,STARLINK-4097,PAYLOAD,2024-01-21 09:41:02,15.08840124,0.0001502,53.2168,87.9777,94.2418,265.8746,0.00022898,3.358e-05,0.0,0 STARLINK-4097,1 53265U 22086Z   24021.40350455  .00003358  00000-0  22898-3 0  9995,2 53265  53.2168  87.9777 0001502  94.2418 265.8746 15.08840124 83393,6917.88,95.438,540.784,538.706,0.0
53265.0,STARLINK-4097,PAYLOAD,2024-01-22 12:42:35,15.08849484,0.000152,53.2156,82.925,93.9201,266.1965,0.00026784,3.978e-05,0.0,0 STARLINK-4097,1 53265U 22086Z   24022.52958301  .00003978  00000-0  26784-3 0  9999,2 53265  53.2156  82.9250 0001520  93.9201 266.1965 15.08849484 83561,6917.851,95.437,540.768,538.665,0.0
53265.0,STARLINK-4097,PAYLOAD,2024-01-23 10:58:00,15.0884664,0.0001585,53.2159,78.7629,75.5085,284.6082,0.00020264,2.939e-05,0.0,0 STARLINK-4097,1 53265U 22086Z   24023.45694530  .00002939  00000-0  20264-3 0  9996,2 53265  53.2159  78.7629 0001585  75.5085 284.6082 15.08846640 83706,6917.86,95.437,540.822,538.629,0.0
53265.0,STARLINK-4097,PAYLOAD,2024-01-24 10:48:47,15.08833528,0.0001943,53.217,74.3046,62.2954,297.8235,-2.0469e-05,-6.14e-06,0.0,0 STARLINK-4097,1 53265U 22086Z   24024.45055531 -.00000614  00000-0 -20469-4 0  9997,2 53265  53.2170  74.3046 0001943  62.2954 297.8235 15.08833528 83853,6917.9,95.438,541.109,538.421,0.0
53265.0,STARLINK-4097,PAYLOAD,2024-01-25 09:04:11,15.088463,0.0001916,53.2164,70.1485,63.4953,296.6235,0.00019592,2.832e-05,0.0,0 STARLINK-4097,1 53265U 22086Z   24025.37791269  .00002832  00000-0  19592-3 0  9990,2 53265  53.2164  70.1485 0001916  63.4953 296.6235 15.08846300 83993,6917.861,95.437,541.052,538.401,0.0
53265.0,STARLINK-4097,PAYLOAD,2024-01-26 08:54:58,15.08843589,0.0001721,53.216,65.6845,73.0263,287.0918,0.00018363,2.636e-05,0.0,0 STARLINK-4097,1 53265U 22086Z   24026.37151344  .00002636  00000-0  18363-3 0  9992,2 53265  53.2160  65.6845 0001721  73.0263 287.0918 15.08843589 84149,6917.869,95.437,540.925,538.544,0.0
53265.0,STARLINK-4097,PAYLOAD,2024-01-27 11:56:31,15.08845282,0.0001725,53.2176,60.62,110.2183,249.8995,6.5618e-05,7.57e-06,0.0,0 STARLINK-4097,1 53265U 22086Z   24027.49758815  .00000757  00000-0  65618-4 0  9990,2 53265  53.2176  60.6200 0001725 110.2183 249.8995 15.08845282 84317,6917.864,95.437,540.923,538.536,0.0
53265.0,STARLINK-4097,PAYLOAD,2024-01-28 05:25:46,15.08835629,0.0001712,53.2178,57.3472,107.3169,252.8011,4.0936e-05,3.63e-06,0.0,0 STARLINK-4097,1 53265U 22086Z   24028.22623452  .00000363  00000-0  40936-4 0  9999,2 53265  53.2178  57.3472 0001712 107.3169 252.8011 15.08835629 84429,6917.894,95.438,540.943,538.574,0.0
53265.0,STARLINK-4097,PAYLOAD,2024-01-28 11:47:19,15.08835026,0.0001712,53.218,56.1587,106.096,254.0221,2.5996e-05,1.26e-06,0.0,0 STARLINK-4097,1 53265U 22086Z   24028.49119603  .00000126  00000-0  25996-4 0  9992,2 53265  53.2180  56.1587 0001712 106.0960 254.0221 15.08835026 84643,6917.896,95.438,540.945,538.576,0.0
53265.0,STARLINK-4097,PAYLOAD,2024-01-29 08:27:19,15.0884381,0.0001695,53.2178,52.2937,106.3931,253.7248,0.0001075,1.423e-05,0.0,0 STARLINK-4097,1 53265U 22086Z   24029.35230942  .00001423  00000-0  10750-3 0  9990,2 53265  53.2178  52.2937 0001695 106.3931 253.7248 15.08843810 84596,6917.869,95.437,540.906,538.561,0.0
53265.0,STARLINK-4097,PAYLOAD,2024-01-30 09:53:30,15.08836212,0.0001769,53.2182,47.54,106.9788,253.1398,5.5783e-05,6e-06,0.0,0 STARLINK-4097,1 53265U 22086Z   24030.41215905  .00000600  00000-0  55783-4 0  9993,2 53265  53.2182  47.5400 0001769 106.9788 253.1398 15.08836212 84757,6917.892,95.438,540.981,538.533,0.0
53265.0,STARLINK-4097,PAYLOAD,2024-01-31 09:44:17,15.08845435,0.0001873,53.2189,43.0762,95.7578,264.3628,8.4836e-05,1.062e-05,0.0,0 STARLINK-4097,1 53265U 22086Z   24031.40575470  .00001062  00000-0  84836-4 0  9993,2 53265  53.2189  43.0762 0001873  95.7578 264.3628 15.08845435 85088,6917.864,95.437,541.024,538.433,0.0
53265.0,STARLINK-4097,PAYLOAD,2024-02-01 00:02:45,15.08839703,0.0001712,53.2182,40.4072,96.3867,263.732,8.9307e-05,1.134e-05,0.0,0 STARLINK-4097,1 53265U 22086Z   24032.00191800  .00001134  00000-0  89307-4 0  9999,2 53265  53.2182  40.4072 0001712  96.3867 263.7320 15.08839703 84998,6917.881,95.438,540.931,538.562,0.0
53265.0,STARLINK-4097,PAYLOAD,2024-02-01 09:35:04,15.08841011,0.0001671,53.2182,38.6178,79.8399,280.2782,8.9852e-05,1.142e-05,0.0,0 STARLINK-4097,1 53265U 22086Z   24032.39935900  .00001142  00000-0  89852-4 0  9992,2 53265  53.2182  38.6178 0001671  79.8399 280.2782 15.08841011 85233,6917.877,95.437,540.898,538.586,0.0
53265.0,STARLINK-4097,PAYLOAD,2024-02-02 04:39:42,15.08840555,0.0001544,53.2178,35.049,91.8999,268.217,-2.0801e-05,-6.19e-06,0.0,0 STARLINK-4097,1 53265U 22086Z   24033.19424318 -.00000619  00000-0 -20801-4 0  9996,2 53265  53.2178  35.0490 0001544  91.8999 268.2170 15.08840555 85177,6917.879,95.438,540.812,538.676,0.0
53265.0,STARLINK-4097,PAYLOAD,2024-02-02 09:25:51,15.08846279,0.0001601,53.218,34.156,103.1329,256.9842,2.4494e-05,1.02e-06,0.0,0 STARLINK-4097,1 53265U 22086Z   24033.39295751  .00000102  00000-0  24494-4 0  9992,2 53265  53.2180  34.1560 0001601 103.1329 256.9842 15.08846279 85388,6917.861,95.437,540.834,538.619,0.0
53265.0,STARLINK-4097,PAYLOAD,2024-02-02 23:44:20,15.08841625,0.0001444,53.2176,31.4766,105.2923,254.8229,-8.7125e-06,-4.27e-06,0.0,0 STARLINK-4097,1 53265U 22086Z   24033.98912182 -.00000427  00000-0 -87125-5 0  9994,2 53265  53.2176  31.4766 0001444 105.2923 254.8229 15.08841625 85295,6917.875,95.437,540.739,538.741,0.0
53265.0,STARLINK-4097,PAYLOAD,2024-02-03 09:16:38,15.08847457,0.0001604,53.2179,29.6956,87.5648,272.5528,9.4668e-05,1.219e-05,0.0,0 STARLINK-4097,1 53265U 22086Z   24034.38655568  .00001219  00000-0  94668-4 0  9998,2 53265  53.2179  29.6956 0001604  87.5648 272.5528 15.08847457 85357,6917.858,95.437,540.832,538.613,0.0
53265.0,STARLINK-4097,PAYLOAD,2024-02-04 04:21:16,15.08822081,0.0001994,53.218,26.1275,123.7472,236.371,0.00028456,4.241e-05,0.0,0 STARLINK-4097,1 53265U 22086Z   24035.18144153  .00004241  00000-0  28456-3 0  9999,2 53265  53.2180  26.1275 0001994 123.7472 236.3710 15.08822081 85475,6917.935,95.439,541.18,538.421,0.0
53265.0,STARLINK-4097,PAYLOAD,2024-02-04 09:07:25,15.0884499,0.0001546,53.2178,25.2337,97.4758,262.641,4.1241e-05,3.68e-06,0.0,0 STARLINK-4097,1 53265U 22086Z   24035.38015775  .00000368  00000-0  41241-4 0  9992,2 53265  53.2178  25.2337 0001546  97.4758 262.6410 15.08844990 85504,6917.865,95.437,540.8,538.661,0.0
53265.0,STARLINK-4097,PAYLOAD,2024-02-05 04:12:03,15.08842726,0.0001632,53.2184,21.6628,108.3738,251.7432,-4.0104e-05,-9.26e-06,0.0,0 STARLINK-4097,1 53265U 22086Z   24036.17504102 -.00000926  00000-0 -40104-4 0  9996,2 53265  53.2184  21.6628 0001632 108.3738 251.7432 15.08842726 85621,6917.872,95.437,540.866,538.608,0.0
53265.0,STARLINK-4097,PAYLOAD,2024-02-05 05:47:26,15.08842753,0.0001636,53.2185,21.3651,110.6077,249.5091,-3.3643e-05,-8.23e-06,0.0,0 STARLINK-4097,1 53265U 22086Z   24036.24128094 -.00000823  00000-0 -33643-4 0  9992,2 53265  53.2185  21.3651 0001636 110.6077 249.5091 15.08842753 85818,6917.872,95.437,540.869,538.605,0.0
53265.0,STARLINK-4097,PAYLOAD,2024-02-05 23:16:41,15.08839573,0.0001515,53.218,18.0939,103.6323,256.4838,1.2306e-05,-9.2e-07,0.0,0 STARLINK-4097,1 53265U 22086Z   24036.96992259 -.00000092  00000-0  12306-4 0  9993,2 53265  53.2180  18.0939 0001515 103.6323 256.4838 15.08839573 85921,6917.882,95.438,540.795,538.699,0.0
